{"type": "FeatureCollection", "features": [ {"type": "Feature", "properties": {"norad_id": 66835, "name": "STARLINK-35890", "group": "last-30-days", "lat": -21.545644275700692, "lon": 170.3792158082473, "alt_km": 413.47404864011514, "timestamp": "2025-12-19T22:41:51.097392+00:00", "meta": {"OBJECT_NAME": "STARLINK-35890", "OBJECT_ID": "2025-280Q", "EPOCH": "2025-12-19T18:00:00.998784", "MEAN_MOTION": 15.52495051, "ECCENTRICITY": 0.0003152, "INCLINATION": 69.9994, "RA_OF_ASC_NODE": 179.1837, "ARG_OF_PERICENTER": 267.2855, "MEAN_ANOMALY": 56.2407, "EPHEMERIS_TYPE": 0, "CLASSIFICATION_TYPE": "U", "NORAD_CAT_ID": 66835, "ELEMENT_SET_NO": 999, "REV_AT_EPOCH": 402, "BSTAR": 0.00050765, "MEAN_MOTION_DOT": 0.00031158, "MEAN_MOTION_DDOT": 0}, "tle": {"line1": "1 66835U 25280Q   25353.75001156  .00031158  00000+0  50765-3 0  9991", "line2": "2 66835  69.9994 179.1837 0003152 267.2855  56.2407 15.52495051  4025"}}, "geometry": {"type": "Point", "coordinates": [170.3792158082473, -21.545644275700692]}}, {"type": "Feature", "properties": {"norad_id": 66836, "name": "STARLINK-35838", "group": "last-30-days", "lat": -19.762698567325845, "lon": 171.12532313893075, "alt_km": 413.4332935723878, "timestamp": "2025-12-19T22:41:51.097405+00:00", "meta": {"OBJECT_NAME": "STARLINK-35838", "OBJECT_ID": "2025-280R", "EPOCH": "2025-12-19T18:00:00.998784", "MEAN_MOTION": 15.52493767, "ECCENTRICITY": 0.0003195, "INCLINATION": 69.9992, "RA_OF_ASC_NODE": 179.181, "ARG_OF_PERICENTER": 265.9642, "MEAN_ANOMALY": 59.4787, "EPHEMERIS_TYPE": 0, "CLASSIFICATION_TYPE": "U", "NORAD_CAT_ID": 66836, "ELEMENT_SET_NO": 999, "REV_AT_EPOCH": 402, "BSTAR": 0.00050172, "MEAN_MOTION_DOT": 0.0003079, "MEAN_MOTION_DDOT": 0}, "tle": {"line1": "1 66836U 25280R   25353.75001156  .00030790  00000+0  50172-3 0  9995", "line2": "2 66836  69.9992 179.1810 0003195 265.9642  59.4787 15.52493767  4029"}}, "geometry": {"type": "Point", "coordinates": [171.12532313893075, -19.762698567325845]}}, {"type": "Feature", "properties": {"norad_id": 66837, "name": "STARLINK-35729", "group": "last-30-days", "lat": -17.966161413230115, "lon": 171.86016458234388, "alt_km": 413.0940712443944, "timestamp": "2025-12-19T22:41:51.097415+00:00", "meta": {"OBJECT_NAME": "STARLINK-35729", "OBJECT_ID": "2025-280S", "EPOCH": "2025-12-19T18:00:00.998784", "MEAN_MOTION": 15.52488412, "ECCENTRICITY": 0.0003411, "INCLINATION": 69.9993, "RA_OF_ASC_NODE": 179.1792, "ARG_OF_PERICENTER": 271.9198, "MEAN_ANOMALY": 55.4536, "EPHEMERIS_TYPE": 0, "CLASSIFICATION_TYPE": "U", "NORAD_CAT_ID": 66837, "ELEMENT_SET_NO": 999, "REV_AT_EPOCH": 402, "BSTAR": 0.0004852, "MEAN_MOTION_DOT": 0.00029762, "MEAN_MOTION_DDOT": 0}, "tle": {"line1": "1 66837U 25280S   25353.75001156  .00029762  00000+0  48520-3 0  9997", "line2": "2 66837  69.9993 179.1792 0003411 271.9198  55.4536 15.52488412  4023"}}, "geometry": {"type": "Point", "coordinates": [171.86016458234388, -17.966161413230115]}}, {"type": "Feature", "properties": {"norad_id": 66838, "name": "STARLINK-35886", "group": "last-30-days", "lat": -14.398419672558907, "lon": 173.27209350459222, "alt_km": 413.11528068388907, "timestamp": "2025-12-19T22:41:51.097424+00:00", "meta": {"OBJECT_NAME": "STARLINK-35886", "OBJECT_ID": "2025-280T", "EPOCH": "2025-12-19T18:00:00.998784", "MEAN_MOTION": 15.52493896, "ECCENTRICITY": 0.0003107, "INCLINATION": 69.9993, "RA_OF_ASC_NODE": 179.1736, "ARG_OF_PERICENTER": 267.103, "MEAN_ANOMALY": 64.0884, "EPHEMERIS_TYPE": 0, "CLASSIFICATION_TYPE": "U", "NORAD_CAT_ID": 66838, "ELEMENT_SET_NO": 999, "REV_AT_EPOCH": 402, "BSTAR": 0.00049874, "MEAN_MOTION_DOT": 0.00030605, "MEAN_MOTION_DDOT": 0}, "tle": {"line1": "1 66838U 25280T   25353.75001156  .00030605  00000+0  49874-3 0  9999", "line2": "2 66838  69.9993 179.1736 0003107 267.1030  64.0884 15.52493896  4020"}}, "geometry": {"type": "Point", "coordinates": [173.27209350459222, -14.398419672558907]}}, {"type": "Feature", "properties": {"norad_id": 66839, "name": "STARLINK-35717", "group": "last-30-days", "lat": -16.189025120086516, "lon": 172.56968872665604, "alt_km": 413.26771576148894, "timestamp": "2025-12-19T22:41:51.097436+00:00", "meta": {"OBJECT_NAME": "STARLINK-35717", "OBJECT_ID": "2025-280U", "EPOCH": "2025-12-19T18:00:00.998784", "MEAN_MOTION": 15.52493144, "ECCENTRICITY": 0.0003132, "INCLINATION": 69.9992, "RA_OF_ASC_NODE": 179.1758, "ARG_OF_PERICENTER": 265.6771, "MEAN_ANOMALY": 63.5983, "EPHEMERIS_TYPE": 0, "CLASSIFICATION_TYPE": "U", "NORAD_CAT_ID": 66839, "ELEMENT_SET_NO": 999, "REV_AT_EPOCH": 402, "BSTAR": 0.00053392, "MEAN_MOTION_DOT": 0.00032784, "MEAN_MOTION_DDOT": 0}, "tle": {"line1": "1 66839U 25280U   25353.75001156  .00032784  00000+0  53392-3 0  9990", "line2": "2 66839  69.9992 179.1758 0003132 265.6771  63.5983 15.52493144  4027"}}, "geometry": {"type": "Point", "coordinates": [172.56968872665604, -16.189025120086516]}}, {"type": "Feature", "properties": {"norad_id": 66840, "name": "STARLINK-35837", "group": "last-30-days", "lat": -12.608141974657052, "lon": 173.96275319359899, "alt_km": 413.0604923850715, "timestamp": "2025-12-19T22:41:51.097446+00:00", "meta": {"OBJECT_NAME": "STARLINK-35837", "OBJECT_ID": "2025-280V", "EPOCH": "2025-12-19T18:00:00.998784", "MEAN_MOTION": 15.52491303, "ECCENTRICITY": 0.0003047, "INCLINATION": 69.9994, "RA_OF_ASC_NODE": 179.1718, "ARG_OF_PERICENTER": 265.8177, "MEAN_ANOMALY": 67.2888, "EPHEMERIS_TYPE": 0, "CLASSIFICATION_TYPE": "U", "NORAD_CAT_ID": 66840, "ELEMENT_SET_NO": 999, "REV_AT_EPOCH": 402, "BSTAR": 0.00054223, "MEAN_MOTION_DOT": 0.00033296, "MEAN_MOTION_DDOT": 0}, "tle": {"line1": "1 66840U 25280V   25353.75001156  .00033296  00000+0  54223-3 0  9995", "line2": "2 66840  69.9994 179.1718 0003047 265.8177  67.2888 15.52491303  4024"}}, "geometry": {"type": "Point", "coordinates": [173.96275319359899, -12.608141974657052]}}, {"type": "Feature", "properties": {"norad_id": 66841, "name": "STARLINK-35715", "group": "last-30-days", "lat": -10.812535264315313, "lon": 174.6450121881492, "alt_km": 412.9854026875737, "timestamp": "2025-12-19T22:41:51.097471+00:00", "meta": {"OBJECT_NAME": "STARLINK-35715", "OBJECT_ID": "2025-280W", "EPOCH": "2025-12-19T18:00:00.998784", "MEAN_MOTION": 15.52491275, "ECCENTRICITY": 0.0003072, "INCLINATION": 69.9994, "RA_OF_ASC_NODE": 179.1699, "ARG_OF_PERICENTER": 264.5771, "MEAN_ANOMALY": 70.4462, "EPHEMERIS_TYPE": 0, "CLASSIFICATION_TYPE": "U", "NORAD_CAT_ID": 66841, "ELEMENT_SET_NO": 999, "REV_AT_EPOCH": 402, "BSTAR": 0.00050371, "MEAN_MOTION_DOT": 0.0003091, "MEAN_MOTION_DDOT": 0}, "tle": {"line1": "1 66841U 25280W   25353.75001156  .00030910  00000+0  50371-3 0  9996", "line2": "2 66841  69.9994 179.1699 0003072 264.5771  70.4462 15.52491275  4029"}}, "geometry": {"type": "Point", "coordinates": [174.6450121881492, -10.812535264315313]}}, {"type": "Feature", "properties": {"norad_id": 66842, "name": "STARLINK-35769", "group": "last-30-days", "lat": -9.013999600893465, "lon": 175.31894134663034, "alt_km": 412.7617093428353, "timestamp": "2025-12-19T22:41:51.097484+00:00", "meta": {"OBJECT_NAME": "STARLINK-35769", "OBJECT_ID": "2025-280X", "EPOCH": "2025-12-19T18:00:00.998784", "MEAN_MOTION": 15.52492607, "ECCENTRICITY": 0.0003141, "INCLINATION": 69.9993, "RA_OF_ASC_NODE": 179.1673, "ARG_OF_PERICENTER": 266.9966, "MEAN_ANOMALY": 69.9434, "EPHEMERIS_TYPE": 0, "CLASSIFICATION_TYPE": "U", "NORAD_CAT_ID": 66842, "ELEMENT_SET_NO": 999, "REV_AT_EPOCH": 402, "BSTAR": 0.00050077, "MEAN_MOTION_DOT": 0.00030729, "MEAN_MOTION_DDOT": 0}, "tle": {"line1": "1 66842U 25280X   25353.75001156  .00030729  00000+0  50077-3 0  9998", "line2": "2 66842  69.9993 179.1673 0003141 266.9966  69.9434 15.52492607  4022"}}, "geometry": {"type": "Point", "coordinates": [175.31894134663034, -9.013999600893465]}}, {"type": "Feature", "properties": {"norad_id": 66843, "name": "STARLINK-35997", "group": "last-30-days", "lat": -5.419169565371281, "lon": 176.64585817885282, "alt_km": 412.5241309204084, "timestamp": "2025-12-19T22:41:51.097494+00:00", "meta": {"OBJECT_NAME": "STARLINK-35997", "OBJECT_ID": "2025-280Y", "EPOCH": "2025-12-19T18:00:00.998784", "MEAN_MOTION": 15.52490818, "ECCENTRICITY": 0.0003013, "INCLINATION": 69.9994, "RA_OF_ASC_NODE": 179.1619, "ARG_OF_PERICENTER": 266.2426, "MEAN_ANOMALY": 74.5302, "EPHEMERIS_TYPE": 0, "CLASSIFICATION_TYPE": "U", "NORAD_CAT_ID": 66843, "ELEMENT_SET_NO": 999, "REV_AT_EPOCH": 402, "BSTAR": 0.0005071, "MEAN_MOTION_DOT": 0.00031119, "MEAN_MOTION_DDOT": 0}, "tle": {"line1": "1 66843U 25280Y   25353.75001156  .00031119  00000+0  50710-3 0  9997", "line2": "2 66843  69.9994 179.1619 0003013 266.2426  74.5302 15.52490818  4024"}}, "geometry": {"type": "Point", "coordinates": [176.64585817885282, -5.419169565371281]}}, {"type": "Feature", "properties": {"norad_id": 66844, "name": "STARLINK-36073", "group": "last-30-days", "lat": -7.225093298726986, "lon": 175.98323787467226, "alt_km": 412.72683109148056, "timestamp": "2025-12-19T22:41:51.097504+00:00", "meta": {"OBJECT_NAME": "STARLINK-36073", "OBJECT_ID": "2025-280Z", "EPOCH": "2025-12-19T18:00:00.998784", "MEAN_MOTION": 15.52466734, "ECCENTRICITY": 0.0003232, "INCLINATION": 69.9996, "RA_OF_ASC_NODE": 179.1657, "ARG_OF_PERICENTER": 266.334, "MEAN_ANOMALY": 72.5299, "EPHEMERIS_TYPE": 0, "CLASSIFICATION_TYPE": "U", "NORAD_CAT_ID": 66844, "ELEMENT_SET_NO": 999, "REV_AT_EPOCH": 402, "BSTAR": 0.00048242, "MEAN_MOTION_DOT": 0.00029565, "MEAN_MOTION_DDOT": 0}, "tle": {"line1": "1 66844U 25280Z   25353.75001156  .00029565  00000+0  48242-3 0  9997", "line2": "2 66844  69.9996 179.1657 0003232 266.3340  72.5299 15.52466734  4021"}}, "geometry": {"type": "Point", "coordinates": [175.98323787467226, -7.225093298726986]}}]}